OBJECT_NAME,OBJECT_ID,EPOCH,MEAN_MOTION,ECCENTRICITY,INCLINATION,RA_OF_ASC_NODE,ARG_OF_PERICENTER,MEAN_ANOMALY,EPHEMERIS_TYPE,CLASSIFICATION_TYPE,NORAD_CAT_ID,ELEMENT_SET_NO,REV_AT_EPOCH,BSTAR,MEAN_MOTION_DOT,MEAN_MOTION_DDOT
CENTISPACE-1 S3,2022-108A,2026-07-07T17:27:32.283936,14.61277635,.0010532,53.5342,330.3224,47.2871,312.8989,0,U,53757,999,20453,.10835E-3,.349E-5,0
CENTISPACE-1 S4,2022-108B,2026-07-07T16:51:03.510144,14.61965045,.0009764,53.5317,327.8476,36.6501,323.5141,0,U,53758,999,20456,.13891E-3,.511E-5,0
BLUEWALKER-3,2022-111AL,2026-07-07T07:39:49.312800,15.38543085,.00047699,53.2292,299.4402,233.0498,127.0071,0,U,53807,999,21330,.15189013E-3,.5474E-4,0
YUNHAI-1 03,2022-115A,2026-07-07T20:37:15.911616,14.32732237,.0004644,98.5539,186.7443,1.9865,358.1337,0,U,53877,999,19847,.11771E-3,.277E-5,0
CENTISPACE-1 S5,2022-126A,2026-07-07T17:12:27.859104,14.63046891,.0014635,54.9984,130.8037,110.3947,249.8620,0,U,54020,999,20004,.16663E-3,.672E-5,0
CENTISPACE-1 S6,2022-126B,2026-07-07T17:17:25.060416,14.62308761,.0016439,54.9986,132.7513,111.2719,249.0032,0,U,54021,999,20000,.12543E-3,.449E-5,0
OTB-3-GAZELLE,2022-127A,2026-07-07T17:28:06.157056,14.42682036,.0014219,98.3954,180.1202,123.6130,236.6419,0,U,54023,999,19732,.49822E-4,.123E-5,0
ASO-S,2022-129A,2026-07-07T20:34:26.185728,14.52072260,.0015074,98.2752,193.6419,33.8904,326.3252,0,U,54029,999,19842,.5696E-4,.186E-5,0
HJ-2E,2022-132A,2026-07-07T20:33:52.741152,15.22626584,.0018222,97.3805,192.8644,299.0058,60.9352,0,U,54035,999,20756,.21796E-3,.502E-4,0
COSMOS 2561,2022-137A,2026-07-07T20:37:27.211872,15.52239736,.00083,96.9173,247.0917,314.2153,45.8418,0,U,54109,999,20955,.15488E-3,.9319E-4,0
GONETS-M 23,2022-139A,2026-07-07T20:52:47.182656,12.42891710,.002183,82.5088,335.4399,174.1225,186.0115,0,U,54150,999,16821,.34071E-3,.57E-6,0
GONETS-M 24,2022-139B,2026-07-07T20:14:00.276000,12.42892281,.0016877,82.5005,334.5022,183.8189,176.2765,0,U,54151,999,16821,.17766E-3,.35E-6,0
GONETS-M 25,2022-139C,2026-07-07T19:54:27.000288,12.42890698,.0020816,82.5070,335.2082,182.9106,177.1855,0,U,54152,999,16821,.21989E-3,.4E-6,0
SKIF-D,2022-139D,2026-07-06T05:50:44.187072,5.00428231,.00074035,89.9492,96.6626,191.0799,168.9710,0,U,54153,999,6506,0,.1E-6,0
MATS,2022-147A,2026-07-07T17:17:47.438880,15.05480742,.0014169,97.6831,190.2298,125.1682,235.0874,0,U,54227,999,20085,.12007E-3,.1666E-4,0
EOS-6 (OCEANSAT-3),2022-158A,2026-07-07T20:07:06.231648,14.46981634,.0000256,98.3548,286.7592,71.5093,288.6128,0,U,54361,999,19082,.7064E-4,.213E-5,0
DONGPO 09,2022-167D,2026-07-07T20:35:59.540928,15.36817654,.0003224,97.6918,0.7966,68.9474,291.2113,0,U,54685,999,19862,.22734E-3,.8094E-4,0
DONGPO 08,2022-167E,2026-07-07T21:00:28.353888,15.34081417,.0009387,97.6882,357.8937,96.0035,264.2277,0,U,54686,999,19849,.21899E-3,.7146E-4,0
2022-167F,2022-167F,2026-07-07T04:18:18.082944,16.06863953,.00054894,97.6045,18.7609,246.7937,113.2766,0,U,54687,999,20002,.68258296E-3,.518976E-2,.13318894E-3
DONGPO 10,2022-167H,2026-07-07T20:54:16.494336,15.34896451,.0005554,97.6963,359.8897,50.8612,309.3124,0,U,54689,999,19853,.2174E-3,.7274E-4,0
JILIN-1 GAOFEN 03D48,2022-167P,2026-07-07T20:35:55.442112,15.35683685,.0007,97.6898,359.2617,53.3115,306.8770,0,U,54695,999,19856,.22342E-3,.7671E-4,0
STAR VIBE,2023-001A,2026-07-07T20:37:16.473216,15.43211224,.0006202,97.3158,253.4131,53.9358,306.2463,0,U,55009,999,19541,.21695E-3,.9549E-4,0
BRO-8,2023-001C,2026-07-07T20:09:49.106016,15.50405137,.0005651,97.3190,254.3389,64.4298,295.7537,0,U,55011,999,19540,.42637E-3,.24196E-3,0
CONNECTA T1.2,2023-001D,2026-07-07T17:52:30.021024,15.52430334,.0004786,97.3241,259.8212,35.1978,324.9590,0,U,55012,999,19573,.50023E-3,.30547E-3,0
BIRKELAND,2023-001G,2026-07-07T20:54:00.556128,15.40451903,.0007204,97.3335,256.8973,44.9109,315.2719,0,U,55015,999,19553,.15184E-3,.6068E-4,0
ION SCV-008,2023-001AU,2026-07-07T17:25:31.569312,15.28821775,.0013332,97.5709,285.3913,302.5656,57.4295,0,U,55051,999,19447,.13942E-3,.3835E-4,0
ION SCV-007,2023-001BD,2026-07-07T17:12:42.179040,14.77571870,.00109,97.8996,251.3240,269.3656,90.6306,0,U,55060,999,18928,.55966E-4,.349E-5,0
HUYGENS,2023-001CN,2026-07-07T20:54:07.838784,15.40452062,.0009267,97.3238,256.1003,19.8918,340.2688,0,U,55093,999,19555,.17451E-3,.6991E-4,0
SHARJAHSAT-1,2023-001CZ,2026-07-07T20:14:14.347968,15.49913674,.0005524,97.3158,257.9057,44.0113,316.1577,0,U,55104,999,19569,.25584E-3,.14213E-3,0
HORUS 1,2023-025A,2026-07-07T20:15:25.208928,15.23486852,.000264,97.3454,263.0042,124.1361,236.0127,0,U,55690,999,18719,.15707E-3,.3677E-4,0
