CENTISPACE-1 S3         
1 53757U 22108A   26188.72745699  .00000349  00000+0  10835-3 0  9999
2 53757  53.5342 330.3224 0010532  47.2871 312.8989 14.61277635204534
CENTISPACE-1 S4         
1 53758U 22108B   26188.70212396  .00000511  00000+0  13891-3 0  9997
2 53758  53.5317 327.8476 0009764  36.6501 323.5141 14.61965045204565
BLUEWALKER-3            
1 53807U 22111AL  26188.31932075  .00005474  00000+0  15189-3 0  9991
2 53807  53.2292 299.4402 0004769 233.0498 127.0071 15.38543085213302
YUNHAI-1 03             
1 53877U 22115A   26188.85921194  .00000277  00000+0  11771-3 0  9990
2 53877  98.5539 186.7443 0004644   1.9865 358.1337 14.32732237198474
CENTISPACE-1 S5         
1 54020U 22126A   26188.71698911  .00000672  00000+0  16663-3 0  9990
2 54020  54.9984 130.8037 0014635 110.3947 249.8620 14.63046891200047
CENTISPACE-1 S6         
1 54021U 22126B   26188.72042894  .00000449  00000+0  12543-3 0  9990
2 54021  54.9986 132.7513 0016439 111.2719 249.0032 14.62308761200002
OTB-3-GAZELLE           
1 54023U 22127A   26188.72784904  .00000123  00000+0  49822-4 0  9998
2 54023  98.3954 180.1202 0014219 123.6130 236.6419 14.42682036197320
ASO-S                   
1 54029U 22129A   26188.85724752  .00000186  00000+0  56960-4 0  9995
2 54029  98.2752 193.6419 0015074  33.8904 326.3252 14.52072260198428
HJ-2E                   
1 54035U 22132A   26188.85686043  .00005020  00000+0  21796-3 0  9996
2 54035  97.3805 192.8644 0018222 299.0058  60.9352 15.22626584207569
COSMOS 2561             
1 54109U 22137A   26188.85934273  .00009319  00000+0  15488-3 0  9990
2 54109  96.9173 247.0917 0008300 314.2153  45.8418 15.52239736209550
GONETS-M 23             
1 54150U 22139A   26188.86999054  .00000057  00000+0  34071-3 0  9996
2 54150  82.5088 335.4399 0021830 174.1225 186.0115 12.42891710168215
GONETS-M 24             
1 54151U 22139B   26188.84305875  .00000035  00000+0  17766-3 0  9995
2 54151  82.5005 334.5022 0016877 183.8189 176.2765 12.42892281168215
GONETS-M 25             
1 54152U 22139C   26188.82947917  .00000040  00000+0  21989-3 0  9991
2 54152  82.5070 335.2082 0020816 182.9106 177.1855 12.42890698168219
SKIF-D                  
1 54153U 22139D   26187.24356698  .00000010  00000+0  00000+0 0  9991
2 54153  89.9492  96.6626 0007403 191.0799 168.9710  5.00428231 65060
MATS                    
1 54227U 22147A   26188.72068795  .00001666  00000+0  12007-3 0  9996
2 54227  97.6831 190.2298 0014169 125.1682 235.0874 15.05480742200853
EOS-6 (OCEANSAT-3)      
1 54361U 22158A   26188.83826657  .00000213  00000+0  70640-4 0  9993
2 54361  98.3548 286.7592 0000256  71.5093 288.6128 14.46981634190826
DONGPO 09               
1 54685U 22167D   26188.85832802  .00008094  00000+0  22734-3 0  9998
2 54685  97.6918   0.7966 0003224  68.9474 291.2113 15.36817654198628
DONGPO 08               
1 54686U 22167E   26188.87532817  .00007146  00000+0  21899-3 0  9992
2 54686  97.6882 357.8937 0009387  96.0035 264.2277 15.34081417198498
2022-167F               
1 54687U 22167F   26188.17937596  .00518976  13319-3  68258-3 0  9998
2 54687  97.6045  18.7609 0005489 246.7937 113.2766 16.06863953200025
DONGPO 10               
1 54689U 22167H   26188.87102424  .00007274  00000+0  21740-3 0  9999
2 54689  97.6963 359.8897 0005554  50.8612 309.3124 15.34896451198538
JILIN-1 GAOFEN 03D48    
1 54695U 22167P   26188.85828058  .00007671  00000+0  22342-3 0  9992
2 54695  97.6898 359.2617 0007000  53.3115 306.8770 15.35683685198566
STAR VIBE               
1 55009U 23001A   26188.85921844  .00009549  00000+0  21695-3 0  9993
2 55009  97.3158 253.4131 0006202  53.9358 306.2463 15.43211224195415
BRO-8                   
1 55011U 23001C   26188.84015169  .00024196  00000+0  42637-3 0  9993
2 55011  97.3190 254.3389 0005651  64.4298 295.7537 15.50405137195405
CONNECTA T1.2           
1 55012U 23001D   26188.74479191  .00030547  00000+0  50023-3 0  9997
2 55012  97.3241 259.8212 0004786  35.1978 324.9590 15.52430334195735
BIRKELAND               
1 55015U 23001G   26188.87083977  .00006068  00000+0  15184-3 0  9997
2 55015  97.3335 256.8973 0007204  44.9109 315.2719 15.40451903195531
ION SCV-008             
1 55051U 23001AU  26188.72605983  .00003835  00000+0  13942-3 0  9997
2 55051  97.5709 285.3913 0013332 302.5656  57.4295 15.28821775194478
ION SCV-007             
1 55060U 23001BD  26188.71715485  .00000349  00000+0  55966-4 0  9995
2 55060  97.8996 251.3240 0010900 269.3656  90.6306 14.77571870189289
HUYGENS                 
1 55093U 23001CN  26188.87092406  .00006991  00000+0  17451-3 0  9994
2 55093  97.3238 256.1003 0009267  19.8918 340.2688 15.40452062195558
SHARJAHSAT-1            
1 55104U 23001CZ  26188.84322162  .00014213  00000+0  25584-3 0  9991
2 55104  97.3158 257.9057 0005524  44.0113 316.1577 15.49913674195693
HORUS 1                 
1 55690U 23025A   26188.84404177  .00003677  00000+0  15707-3 0  9992
2 55690  97.3454 263.0042 0002640 124.1361 236.0127 15.23486852187197
